STARLINK-32367          
1 60919U 24154S   24273.58334491 -.00116345  00000+0 -29377-2 0  9997
2 60919  53.1591 208.4322 0001202  93.3226 252.8236 15.39676544  5847
STARLINK-32345          
1 60920U 24154T   24273.31504259 -.00569966  00000+0 -12259-1 0  9992
2 60920  53.1604 209.5702 0002191  74.1321 285.9928 15.46226998  5745
STARLINK-32356          
1 60921U 24154U   24273.11827178  .00003845  00000+0  77092-4 0  9995
2 60921  53.1618 210.4780 0001485  86.2340 273.8839 15.49333602  5716
STARLINK-32274          
1 60922U 24154V   24273.11861515  .00002803  00000+0  58392-4 0  9994
2 60922  53.1616 210.4831 0001613  68.5313 291.5868 15.49336820  5712
STARLINK-32373          
1 60923U 24154W   24273.24697228 -.00000626  00000+0 -31891-5 0  9996
2 60923  53.1615 209.8577 0002116  28.5093 331.6031 15.49301336  5735
STARLINK-11239 [DTC]    
1 60924U 24155A   24272.71040679  .00009660  00000+0  62933-4 0  9996
2 60924  53.1569  59.8661 0001738 328.0571  32.0344 15.76735457  5621
STARLINK-11245 [DTC]    
1 60925U 24155B   24272.83230832 -.00000322  00000+0  20278-5 0  9996
2 60925  53.1513  59.2027 0001107 110.7615 249.3524 15.76706066  5645
STARLINK-11244 [DTC]    
1 60926U 24155C   24273.13945136  .00003759  00000+0  26942-4 0  9990
2 60926  53.1595  57.5603 0000250  63.6517 296.4530 15.76732438  5734
STARLINK-11243 [DTC]    
1 60927U 24155D   24272.70063312  .00006136  00000+0  41447-4 0  9999
2 60927  53.1511  59.7997 0002293  94.8073 265.3209 15.76742027  5626
STARLINK-11238 [DTC]    
1 60928U 24155E   24273.13456868  .00010425  00000+0  67562-4 0  9992
2 60928  53.1571  57.5282 0001133  83.8838 276.2312 15.76746132  5745
STARLINK-11240 [DTC]    
1 60929U 24155F   24272.68599489  .00007670  00000+0  50862-4 0  9992
2 60929  53.1542  59.7032 0000753  68.9489 291.1613 15.76706270  5620
STARLINK-11251 [DTC]    
1 60930U 24155G   24272.80787541  .00005401  00000+0  36957-4 0  9995
2 60930  53.1562  59.0411 0000340  95.0014 265.1046 15.76734035  5648
STARLINK-11204 [DTC]    
1 60931U 24155H   24272.67622152  .00002392  00000+0  18609-4 0  9997
2 60931  53.1559  59.6399 0001002 103.6667 256.4466 15.76722880  5624
STARLINK-11246 [DTC]    
1 60932U 24155J   24273.11503301  .00005822  00000+0  39522-4 0  9990
2 60932  53.1527  57.3982 0000938 147.6336 212.4742 15.76738896  5691
STARLINK-11207 [DTC]    
1 60933U 24155K   24273.11015123  .00002170  00000+0  17250-4 0  9998
2 60933  53.1516  57.3649 0000742  73.3757 286.7346 15.76728905  5699
STARLINK-11237 [DTC]    
1 60934U 24155L   24273.10527182 -.00011527  00000+0 -66530-4 0  9994
2 60934  53.1527  57.3314 0002776  86.6793 273.4545 15.76714526  5707
STARLINK-11253 [DTC]    
1 60935U 24155M   24273.58334491 -.00030215  00000+0 -24550-3 0  9996
2 60935  53.1583  55.0796 0000990  94.5075  34.3060 15.69704570  5803
STARLINK-11241 [DTC]    
1 60936U 24155N   24273.58334491  .00005834  00000+0  52994-4 0  9998
2 60936  53.1580  55.0231 0000653 117.0006  39.5364 15.69701110  5807
STARLINK-32259          
1 60937U 24155P   24273.58334491 -.01152113  00000+0 -30631-1 0  9996
2 60937  53.1597  56.7192 0001396  89.4784 308.5284 15.40522679  5800
STARLINK-32262          
1 60938U 24155Q   24273.46571135  .00062830  13191-4  10000-3 0  9995
2 60938  53.1517  52.8378 0001740 277.9364 189.4171 16.03955398  5839
STARLINK-32258          
1 60939U 24155R   24273.58334491 -.00047007  00000+0 -84144-3 0  9992
2 60939  53.1591  56.6526 0001324  78.7681 353.1417 15.49334131  5698
STARLINK-32251          
1 60940U 24155S   24273.58334491 -.01546550  00000+0 -32010-1 0  9995
2 60940  53.1593  56.6420 0001052  65.0332  11.9337 15.48220194  5709
STARLINK-32224          
1 60941U 24155T   24273.58334491 -.00035644  00000+0 -63533-3 0  9998
2 60941  53.1591  56.6246 0001081  97.8314 347.5006 15.49326789  5685
STARLINK-32184          
1 60942U 24155U   24273.58334491 -.01544002  00000+0 -37496-1 0  9990
2 60942  53.1594  56.6810 0001030  80.3959 337.1165 15.43601394  5753
STARLINK-32288          
1 60943U 24155V   24273.58334491 -.00047047  00000+0 -84227-3 0  9993
2 60943  53.1592  56.6327 0001057  78.5746   2.9206 15.49331256  5696
STARLINK-32276          
1 60944U 24155W   24273.58334491 -.00031832  00000+0 -56628-3 0  9993
2 60944  53.1592  56.6287 0001055  96.4786 346.9362 15.49325602  5796
YAOGAN-43 02A           
1 60945U 24156A   24273.10087641  .00049113  00000+0  18754-2 0  9991
2 60945  34.9974 175.6337 0003928 167.9778 192.1032 15.25587275  3986
YAOGAN-43 02B           
1 60946U 24156B   24271.14027711  .00019197  00000+0  77184-3 0  9998
2 60946  34.9942 188.0459 0003642 154.0328 206.0570 15.24044697  3635
YAOGAN-43 02C           
1 60947U 24156C   24272.99641126 -.00231195  00000+0 -96853-2 0  9994
2 60947  34.9994 176.3421 0003208 195.8292 293.1629 15.23735410  3915
YAOGAN-43 02D           
1 60948U 24156D   24272.45580154  .00000215  00000+0  10249-4 0  9991
2 60948  34.9927 179.8380 0004320 134.7248 225.3819 15.23765435  3832
YAOGAN-43 02E           
1 60949U 24156E   24273.44112790  .00037835  00000+0  15681-2 0  9990
2 60949  34.9958 173.6730 0008784 152.6680 207.4498 15.22879266  3982
YAOGAN-43 02F           
1 60950U 24156F   24272.99684130 -.00266169  00000+0 -10996-1 0  9992
2 60950  34.9934 176.3612 0002142 176.8379 301.2450 15.24361923  3914
CZ-4B R/B               
1 60951U 24156G   24273.42432679  .00061403  00000+0  92733-3 0  9994
2 60951  35.0020 167.6871 0088057 245.5082 113.6438 15.49126839  4089
BINAR-4                 
1 60952U 98067WS  24273.10683078  .00256136  00000+0  29397-2 0  9997
2 60952  51.6334 159.4036 0004560  73.9474 286.2021 15.60662936  4787
COSMOGIRLSAT            
1 60953U 98067WT  24272.94049443  .00148653  00000+0  19768-2 0  9996
2 60953  51.6358 160.5438 0008495  57.0247 303.1560 15.57132831  4751
SAKURA                  
1 60954U 98067WU  24273.38118811  .00156646  00000+0  20026-2 0  9992
2 60954  51.6356 158.2392 0007711  61.0057 299.1707 15.58160975  4823
1998-067WV              
1 60955U 98067WV  24273.56722584  .00442654  00000+0  39139-2 0  9993
2 60955  51.6330 156.4791 0001912 131.0003 229.1159 15.66698510  4863
BINAR-2                 
1 60956U 98067WW  24273.04753645  .00209317  00000+0  25249-2 0  9993
2 60956  51.6302 159.7523 0005757  69.8049 290.3563 15.59517617  4769
BINAR-3                 
1 60957U 98067WX  24273.54581209  .00288215  00000+0  31612-2 0  9999
2 60957  51.6324 157.0834 0003949  77.4377 282.7058 15.61733854  6830
1998-067WY              
1 60958U 98067WY  24273.39383198  .00128973  00000+0  17418-2 0  9992
2 60958  51.6367 158.3239 0008708  57.4676 302.7155 15.56795339  4816
SENTINEL-2C             
1 60989U 24157A   24273.49142194  .00000556  00000+0  21300-3 0  9997
2 60989  98.5684 346.2465 0001901 190.5850 169.5295 14.34435956  3502
STARLINK-11289 [DTC]    
1 60991U 24158B   24273.60824962  .00012400  00000+0  79591-4 0  9991
2 60991  53.1580 355.6778 0003313  14.2591 345.8523 15.76746024  4952
STARLINK-11282 [DTC]    
1 60992U 24158C   24273.50025911  .00017468  00000+0  11039-3 0  9999
2 60992  53.1606 355.6906 0001422  93.9144 266.2039 15.76752969  4944
STARLINK-11283 [DTC]    
1 60993U 24158D   24273.40766256  .00006536  00000+0  43861-4 0  9996
2 60993  53.1583 356.5563 0001505  75.0636 285.0551 15.76749938  4925
STARLINK-11267 [DTC]    
1 60994U 24158E   24273.52955528  .00009788  00000+0  63696-4 0  9992
2 60994  53.1583 355.8933 0000953 120.9450 239.1664 15.76741421  4945
STARLINK-11269 [DTC]    
1 60995U 24158F   24273.52466219  .00041570  00000+0  25600-3 0  9994
2 60995  53.1590 355.8652 0001895 136.1279 223.9893 15.76793610  4937
STARLINK-11281 [DTC]    
1 60996U 24158G   24273.51978515  .00022875  00000+0  14318-3 0  9992
2 60996  53.1583 355.8260 0000920  95.9598 264.1528 15.76760612  4937
STARLINK-11260 [DTC]    
1 60997U 24158H   24273.58334491 -.00071657  12774-4 -17725-3 0  9994
2 60997  53.1491 353.3021 0001154  44.3198 301.2583 15.94319890  5043
STARLINK-11287 [DTC]    
1 60998U 24158J   24273.45152407  .00003475  00000+0  25232-4 0  9994
2 60998  53.1588 356.1121 0001868 134.9482 225.1691 15.76722303  4924
STARLINK-11270 [DTC]    
1 60999U 24158K   24273.51001997 -.00002809  00000+0 -13184-4 0  9994
2 60999  53.1581 355.7551 0000615 120.7216 239.3866 15.76716273  4938
STARLINK-11290 [DTC]    
1 61000U 24158L   24273.44175697  .00021493  00000+0  13491-3 0  9997
2 61000  53.1585 356.0448 0001407  78.9256 281.1923 15.76740979  4998
STARLINK-11274 [DTC]    
1 61001U 24158M   24273.58334491  .00090295  00000+0  55111-3 0  9993
2 61001  53.1589 355.2212 0001301  99.2745  40.4479 15.76676639  4998
STARLINK-11288 [DTC]    
1 61002U 24158N   24273.49677783  .00007758  00000+0  55328-4 0  9991
2 61002  53.1597 355.6679 0001574  91.3456 268.7744 15.74984456  4934
STARLINK-32279          
1 61003U 24158P   24273.58334491 -.01343328  00000+0 -22591-1 0  9990
2 61003  53.1600 355.9204 0001377  68.5941  87.8939 15.54051224  5048
STARLINK-32336          
1 61004U 24158Q   24273.58334491 -.01344334  00000+0 -22610-1 0  9991
2 61004  53.1601 355.9682 0001280  70.8270  62.7427 15.54051734  5044
STARLINK-32284          
1 61005U 24158R   24273.58334491 -.01344779  00000+0 -22618-1 0  9993
2 61005  53.1600 355.9915 0001296  69.5534  52.5570 15.54051934  4999
STARLINK-32282          
1 61006U 24158S   24273.58334491 -.01344161  00000+0 -22607-1 0  9997
2 61006  53.1600 355.9437 0001251  80.0267  65.0021 15.54051699  5046
STARLINK-32360          
1 61007U 24158T   24273.58334491  .01174526  65774-3  30346-2 0  9995
2 61007  53.1507 353.9122 0003228  16.8398  38.2354 15.94669927  5011
